GLOBALSTAR M063         
1 26081U 00008A   24253.95812299 -.00000148  00000+0 -95643-3 0  9990
2 26081  51.9946 129.5888 0004872 125.8433 248.4566 11.86157030124320
GLOBALSTAR M062         
1 26082U 00008B   24253.61209439 -.00000022  00000+0  54800-3 0  9990
2 26082  51.9831 200.8563 0006624 234.7226 297.0219 12.43445334461717
GLOBALSTAR M060         
1 26083U 00008C   24253.88921028 -.00000060  00000+0  30960-3 0  9998
2 26083  52.0007 120.3956 0002594 283.7989  90.7404 12.17640957118227
GLOBALSTAR M064         
1 26084U 00008D   24253.67041315 -.00000057  00000+0  37857-3 0  9996
2 26084  52.0003 232.4823 0001206 244.0761 115.9947 11.88522545133744
GLOBALSTAR M065         
1 31571U 07020A   24253.79074769 -.00000039  00000+0  36126-3 0  9994
2 31571  51.9922 359.6866 0010356  48.9839  88.1039 12.61974498798000
GLOBALSTAR M069         
1 31573U 07020C   24253.94436792 -.00000034  00000+0  40105-3 0  9998
2 31573  51.9964 315.0243 0000505 178.4577 359.3070 12.58764206799151
GLOBALSTAR M072         
1 31574U 07020D   24253.73430645 -.00000069  00000+0  19597-3 0  9996
2 31574  52.0095  51.5936 0001184  95.5654 277.6316 12.62263413797409
GLOBALSTAR M071         
1 31576U 07020F   24253.95725032 -.00000025  00000+0  43957-3 0  9998
2 31576  52.0086 320.1336 0000872 203.8930 325.8291 12.62288014460346
